{
  "type": "FeatureCollection",
  "features": [
    {
      "type": "Feature",
      "properties": {
        "norad_id": 41330,
        "name": "COSMOS 2514 (751)",
        "group": "gnss",
        "lat": 41.883269839923656,
        "lon": -16.212569766337978,
        "alt_km": 19155.111472751698,
        "timestamp": "2025-12-17T17:50:19.493598+00:00",
        "meta_object_name": "COSMOS 2514 (751)",
        "meta_object_id": "2016-008A",
        "meta_epoch": "2025-12-17T05:05:28.400064",
        "meta_mean_motion": 2.13102689,
        "meta_eccentricity": 0.00119109,
        "meta_inclination": 65.1312,
        "meta_ra_of_asc_node": 319.2508,
        "meta_arg_of_pericenter": 220.1411,
        "meta_mean_anomaly": 139.7633,
        "meta_ephemeris_type": 0,
        "meta_classification_type": "U",
        "meta_norad_cat_id": 41330,
        "meta_element_set_no": 999,
        "meta_rev_at_epoch": 7674,
        "meta_bstar": 0,
        "meta_mean_motion_dot": -6.8e-07,
        "meta_mean_motion_ddot": 0,
        "tle_line1": "1 41330U 16008A   25351.21213426 -.00000068  00000+0  00000+0 0  9996",
        "tle_line2": "2 41330  65.1312 319.2508 0011910 220.1411 139.7633  2.13102689 76740"
      },
      "geometry": {
        "type": "Point",
        "coordinates": [
          -16.212569766337978,
          41.883269839923656
        ]
      }
    },
    {
      "type": "Feature",
      "properties": {
        "norad_id": 41384,
        "name": "IRNSS-1F",
        "group": "gnss",
        "lat": -4.695378543888136,
        "lon": 26.896069326892256,
        "alt_km": 35809.72349211655,
        "timestamp": "2025-12-17T17:50:19.493610+00:00",
        "meta_object_name": "IRNSS-1F",
        "meta_object_id": "2016-015A",
        "meta_epoch": "2025-12-17T01:29:42.872928",
        "meta_mean_motion": 1.00274775,
        "meta_eccentricity": 0.00226198,
        "meta_inclination": 4.8917,
        "meta_ra_of_asc_node": 101.1916,
        "meta_arg_of_pericenter": 181.2146,
        "meta_mean_anomaly": 218.3548,
        "meta_ephemeris_type": 0,
        "meta_classification_type": "U",
        "meta_norad_cat_id": 41384,
        "meta_element_set_no": 999,
        "meta_rev_at_epoch": 3584,
        "meta_bstar": 0,
        "meta_mean_motion_dot": 1.8e-06,
        "meta_mean_motion_ddot": 0,
        "tle_line1": "1 41384U 16015A   25351.06230177  .00000180  00000+0  00000+0 0  9992",
        "tle_line2": "2 41384   4.8917 101.1916 0022619 181.2146 218.3548  1.00274775 35847"
      },
      "geometry": {
        "type": "Point",
        "coordinates": [
          26.896069326892256,
          -4.695378543888136
        ]
      }
    },
    {
      "type": "Feature",
      "properties": {
        "norad_id": 41434,
        "name": "BEIDOU-2 IGSO-6 (C13)",
        "group": "gnss",
        "lat": 39.70782167011398,
        "lon": 68.55344825956786,
        "alt_km": 36033.76417674581,
        "timestamp": "2025-12-17T17:50:19.493623+00:00",
        "meta_object_name": "BEIDOU-2 IGSO-6 (C13)",
        "meta_object_id": "2016-021A",
        "meta_epoch": "2025-12-11T15:29:12.615360",
        "meta_mean_motion": 1.00293077,
        "meta_eccentricity": 0.00608616,
        "meta_inclination": 59.9644,
        "meta_ra_of_asc_node": 39.9082,
        "meta_arg_of_pericenter": 229.9753,
        "meta_mean_anomaly": 135.9177,
        "meta_ephemeris_type": 0,
        "meta_classification_type": "U",
        "meta_norad_cat_id": 41434,
        "meta_element_set_no": 999,
        "meta_rev_at_epoch": 3560,
        "meta_bstar": 0,
        "meta_mean_motion_dot": -1.62e-06,
        "meta_mean_motion_ddot": 0,
        "tle_line1": "1 41434U 16021A   25345.64528490 -.00000162  00000+0  00000+0 0  9991",
        "tle_line2": "2 41434  59.9644  39.9082 0060861 229.9753 135.9177  1.00293077 35600"
      },
      "geometry": {
        "type": "Point",
        "coordinates": [
          68.55344825956786,
          39.70782167011398
        ]
      }
    },
    {
      "type": "Feature",
      "properties": {
        "norad_id": 41469,
        "name": "IRNSS-1G",
        "group": "gnss",
        "lat": 1.774345021540059,
        "lon": 123.59930350387476,
        "alt_km": 35777.137793812624,
        "timestamp": "2025-12-17T17:50:19.493651+00:00",
        "meta_object_name": "IRNSS-1G",
        "meta_object_id": "2016-027A",
        "meta_epoch": "2025-12-17T05:22:53.239584",
        "meta_mean_motion": 1.0027801,
        "meta_eccentricity": 0.00025752,
        "meta_inclination": 4.745,
        "meta_ra_of_asc_node": 101.9816,
        "meta_arg_of_pericenter": 331.8345,
        "meta_mean_anomaly": 222.4512,
        "meta_ephemeris_type": 0,
        "meta_classification_type": "U",
        "meta_norad_cat_id": 41469,
        "meta_element_set_no": 999,
        "meta_rev_at_epoch": 3535,
        "meta_bstar": 0,
        "meta_mean_motion_dot": -3.13e-06,
        "meta_mean_motion_ddot": 0,
        "tle_line1": "1 41469U 16027A   25351.22422731 -.00000313  00000+0  00000+0 0  9995",
        "tle_line2": "2 41469   4.7450 101.9816 0002575 331.8345 222.4512  1.00278010 35351"
      },
      "geometry": {
        "type": "Point",
        "coordinates": [
          123.59930350387476,
          1.774345021540059
        ]
      }
    },
    {
      "type": "Feature",
      "properties": {
        "norad_id": 41549,
        "name": "GSAT0211 (GALILEO 14)",
        "group": "gnss",
        "lat": 43.14760690906859,
        "lon": 5.963929894347074,
        "alt_km": 23220.575741811226,
        "timestamp": "2025-12-17T17:50:19.493668+00:00",
        "meta_object_name": "GSAT0211 (GALILEO 14)",
        "meta_object_id": "2016-030A",
        "meta_epoch": "2025-12-14T00:32:28.498848",
        "meta_mean_motion": 1.70473201,
        "meta_eccentricity": 0.000407,
        "meta_inclination": 55.1518,
        "meta_ra_of_asc_node": 226.7881,
        "meta_arg_of_pericenter": 16.5595,
        "meta_mean_anomaly": 343.5367,
        "meta_ephemeris_type": 0,
        "meta_classification_type": "U",
        "meta_norad_cat_id": 41549,
        "meta_element_set_no": 999,
        "meta_rev_at_epoch": 5951,
        "meta_bstar": 0,
        "meta_mean_motion_dot": 2.8e-07,
        "meta_mean_motion_ddot": 0,
        "tle_line1": "1 41549U 16030A   25348.02255207  .00000028  00000+0  00000+0 0  9996",
        "tle_line2": "2 41549  55.1518 226.7881 0004070  16.5595 343.5367  1.70473201 59512"
      },
      "geometry": {
        "type": "Point",
        "coordinates": [
          5.963929894347074,
          43.14760690906859
        ]
      }
    },
    {
      "type": "Feature",
      "properties": {
        "norad_id": 41550,
        "name": "GSAT0210 (GALILEO 13)",
        "group": "gnss",
        "lat": -27.693016518289333,
        "lon": -154.7366757986237,
        "alt_km": 23225.761931046258,
        "timestamp": "2025-12-17T17:50:19.493679+00:00",
        "meta_object_name": "GSAT0210 (GALILEO 13)",
        "meta_object_id": "2016-030B",
        "meta_epoch": "2025-12-14T06:43:07.791456",
        "meta_mean_motion": 1.70473679,
        "meta_eccentricity": 9.538e-05,
        "meta_inclination": 55.1512,
        "meta_ra_of_asc_node": 226.7791,
        "meta_arg_of_pericenter": 236.3511,
        "meta_mean_anomaly": 123.7237,
        "meta_ephemeris_type": 0,
        "meta_classification_type": "U",
        "meta_norad_cat_id": 41550,
        "meta_element_set_no": 999,
        "meta_rev_at_epoch": 5951,
        "meta_bstar": 0,
        "meta_mean_motion_dot": 3e-07,
        "meta_mean_motion_ddot": 0,
        "tle_line1": "1 41550U 16030B   25348.27995129  .00000030  00000+0  00000+0 0  9992",
        "tle_line2": "2 41550  55.1512 226.7791 0000953 236.3511 123.7237  1.70473679 59517"
      },
      "geometry": {
        "type": "Point",
        "coordinates": [
          -154.7366757986237,
          -27.693016518289333
        ]
      }
    },
    {
      "type": "Feature",
      "properties": {
        "norad_id": 41586,
        "name": "BEIDOU-2 G7 (C03)",
        "group": "gnss",
        "lat": 1.0836559796715242,
        "lon": 104.65501791379029,
        "alt_km": 35767.72002825613,
        "timestamp": "2025-12-17T17:50:19.493691+00:00",
        "meta_object_name": "BEIDOU-2 G7 (C03)",
        "meta_object_id": "2016-037A",
        "meta_epoch": "2025-12-17T07:00:07.338240",
        "meta_mean_motion": 1.00273126,
        "meta_eccentricity": 0.00050563,
        "meta_inclination": 1.768,
        "meta_ra_of_asc_node": 67.8201,
        "meta_arg_of_pericenter": 3.4641,
        "meta_mean_anomaly": 230.3643,
        "meta_ephemeris_type": 0,
        "meta_classification_type": "U",
        "meta_norad_cat_id": 41586,
        "meta_element_set_no": 999,
        "meta_rev_at_epoch": 506,
        "meta_bstar": 0,
        "meta_mean_motion_dot": -3.3e-06,
        "meta_mean_motion_ddot": 0,
        "tle_line1": "1 41586U 16037A   25351.29175160 -.00000330  00000+0  00000+0 0  9993",
        "tle_line2": "2 41586   1.7680  67.8201 0005056   3.4641 230.3643  1.00273126  5060"
      },
      "geometry": {
        "type": "Point",
        "coordinates": [
          104.65501791379029,
          1.0836559796715242
        ]
      }
    }
  ]
}